{
    "links": {
        "self": "http://www.neowsapp.com/rest/v1/neo/3829483?api_key=iIulBulltgU6a56xZRHN4H3l9WmuAYTsLGpBGhQ2"
    },
    "id": "3829483",
    "neo_reference_id": "3829483",
    "name": "(2018 RT7)",
    "designation": "2018 RT7",
    "nasa_jpl_url": "http://ssd.jpl.nasa.gov/sbdb.cgi?sstr=3829483",
    "absolute_magnitude_h": 23.0,
    "estimated_diameter": {
        "kilometers": {
            "estimated_diameter_min": 0.0667659413,
            "estimated_diameter_max": 0.1492931834
        },
        "meters": {
            "estimated_diameter_min": 66.7659413495,
            "estimated_diameter_max": 149.2931834393
        },
        "miles": {
            "estimated_diameter_min": 0.0414864197,
            "estimated_diameter_max": 0.0927664547
        },
        "feet": {
            "estimated_diameter_min": 219.0483710172,
            "estimated_diameter_max": 489.807047955
        }
    },
    "is_potentially_hazardous_asteroid": false,
    "close_approach_data": [
        {
            "close_approach_date": "2013-08-29",
            "close_approach_date_full": "2013-Aug-29 19:12",
            "epoch_date_close_approach": 1377803520000,
            "relative_velocity": {
                "kilometers_per_second": "9.5477521668",
                "kilometers_per_hour": "34371.9078003921",
                "miles_per_hour": "21357.3668218603"
            },
            "miss_distance": {
                "astronomical": "0.307854729",
                "lunar": "119.755489581",
                "kilometers": "46054411.72782723",
                "miles": "28616884.465106574"
            },
            "orbiting_body": "Earth"
        },
        {
            "close_approach_date": "2018-09-15",
            "close_approach_date_full": "2018-Sep-15 22:52",
            "epoch_date_close_approach": 1537051920000,
            "relative_velocity": {
                "kilometers_per_second": "9.5236114232",
                "kilometers_per_hour": "34285.0011233797",
                "miles_per_hour": "21303.3663924689"
            },
            "miss_distance": {
                "astronomical": "0.3023691854",
                "lunar": "117.6216131206",
                "kilometers": "45233786.089475098",
                "miles": "28106971.3384204324"
            },
            "orbiting_body": "Earth"
        },
        {
            "close_approach_date": "2023-10-05",
            "close_approach_date_full": "2023-Oct-05 00:17",
            "epoch_date_close_approach": 1696465020000,
            "relative_velocity": {
                "kilometers_per_second": "9.498222168",
                "kilometers_per_hour": "34193.5998047787",
                "miles_per_hour": "21246.573167586"
            },
            "miss_distance": {
                "astronomical": "0.4126687091",
                "lunar": "160.5281278399",
                "kilometers": "61734359.897009617",
                "miles": "38359952.4653700346"
            },
            "orbiting_body": "Earth"
        },
        {
            "close_approach_date": "2026-03-15",
            "close_approach_date_full": "2026-Mar-15 19:45",
            "epoch_date_close_approach": 1773603900000,
            "relative_velocity": {
                "kilometers_per_second": "10.6248795163",
                "kilometers_per_hour": "38249.5662585569",
                "miles_per_hour": "23766.792989935"
            },
            "miss_distance": {
                "astronomical": "0.4991963796",
                "lunar": "194.1873916644",
                "kilometers": "74678715.099871452",
                "miles": "46403201.8179999576"
            },
            "orbiting_body": "Earth"
        }
    ],
    "orbital_data": {
        "orbit_id": "4",
        "orbit_determination_date": "2018-10-07 06:47:23",
        "first_observation_date": "2018-09-13",
        "last_observation_date": "2018-10-06",
        "data_arc_in_days": 23,
        "observations_used": 33,
        "orbit_uncertainty": "7",
        "minimum_orbit_intersection": ".285665",
        "jupiter_tisserand_invariant": "4.702",
        "epoch_osculation": "2459000.5",
        "eccentricity": ".1119713083574427",
        "semi_major_axis": "1.396469059722692",
        "inclination": "18.51455011090192",
        "ascending_node_longitude": "358.3601923121961",
        "orbital_period": "602.7613594342434",
        "perihelion_distance": "1.240104592024854",
        "perihelion_argument": "300.2539725269372",
        "aphelion_distance": "1.55283352742053",
        "perihelion_time": "2458901.547783223777",
        "mean_anomaly": "59.09933920262589",
        "mean_motion": ".5972512908556362",
        "equinox": "J2000",
        "orbit_class": {
            "orbit_class_type": "AMO",
            "orbit_class_description": "Near-Earth asteroid orbits similar to that of 1221 Amor",
            "orbit_class_range": "1.017 AU < q (perihelion) < 1.3 AU"
        }
    },
    "is_sentry_object": false
}